TIANQI-6                
1 46810U 20076D   26023.87732752  .00007348  00000+0  49581-3 0  9999
2 46810  34.9976 213.3822 0011131 336.4305  23.5893 15.05915204286807
KSM1-C                  
1 46906U 20081B   26023.89686184  .00013306  00000+0  54300-3 0  9996
2 46906  36.8926 227.9314 0002394  74.4139 285.6874 15.23795188287124
KSM1-D                  
1 46907U 20081C   26023.92145961  .00011798  00000+0  50575-3 0  9997
2 46907  36.8953 234.2697 0003058 101.6607 258.4484 15.22171240287087
KSM1-A                  
1 46912U 20081H   26023.89944959  .00012077  00000+0  50215-3 0  9995
2 46912  36.8949 229.3349 0001836 223.6915 136.3688 15.23198685287146
R2                      
1 46913U 20081J   26024.27049723  .00014849  00000+0  62333-3 0  9997
2 46913  36.8967 226.3898 0005779 139.8528 220.2648 15.22800718290016
KSM1-B                  
1 46914U 20081K   26023.97245758  .00012819  00000+0  55167-3 0  9992
2 46914  36.9002 234.2451 0004550 138.1526 221.9571 15.22008979290187
GONETS-M 20             
1 47227U 20091A   26024.23877399 -.00000077  00000+0 -62938-3 0  9992
2 47227  82.5028  31.9103 0021701 132.1779 228.1148 12.42887267233198
GONETS-M 21             
1 47228U 20091B   26024.29218403 -.00000045  00000+0 -40049-3 0  9998
2 47228  82.4955  30.6720 0015264 144.7037 215.5057 12.42879360233195
GONETS-M 22             
1 47229U 20091C   26024.26601642 -.00000048  00000+0 -42195-3 0  9994
2 47229  82.5012  31.5202 0022612 127.6506 232.6630 12.42886049233146
CUBEL                   
1 47448U 21006AM  26023.88759612  .00015177  00000+0  40450-3 0  9991
2 47448  97.2563  75.9720 0006453 349.5823  10.5288 15.38235381277552
ASTROCAST-0103          
1 47487U 21006CC  26023.62319987  .00083569  00000+0  81077-3 0  9993
2 47487  97.2733  91.2865 0001585 251.7513 108.3575 15.66084973278451
ARKTIKA-M 1             
1 47719U 21016A   26022.94471818 -.00000086  00000+0  00000+0 0  9995
2 47719  63.1884  78.3174 7224773 269.2923  15.3697  2.00632444 35874
STARLINK-2342           
1 47883U 21021Z   26024.33337963  .00014202  00000+0  50382-3 0  9996
2 47883  53.1580 114.0398 0001316  97.1486 230.1126 15.29338096  5800
GRUS-1B                 
1 47934U 21022C   26024.30635628  .00001765  00000+0  15114-3 0  9994
2 47934  97.5598 272.0793 0019663  85.8169 274.5301 14.98679992264349
2021-022F               
1 47937U 21022F   26024.27359244  .00015604  00000+0  53399-3 0  9994
2 47937  97.4032 285.2445 0008474 240.4953 119.5443 15.30295558267686
WILDTRACKCUBE-SIMBA     
1 47941U 21022K   26021.89202769  .00202779  00000+0  11609-2 0  9991
2 47941  97.4025 300.0175 0005606 143.3516 216.8135 15.78247967268390
UNISAT-7                
1 47945U 21022P   26024.21578034  .00023542  00000+0  67104-3 0  9996
2 47945  97.4017 287.9831 0008274 223.7335 136.3255 15.36043857267724
2021-022X               
1 47953U 21022X   26024.29960706  .00068117  00000+0  10490-2 0  9996
2 47953  97.4018 294.6274 0005493 193.7434 166.3671 15.53955789268020
2021-022AC              
1 47958U 21022AC  26024.31904737  .00098236  00000+0  11327-2 0  9991
2 47958  97.3956 296.9034 0005804 175.8076 184.3231 15.61604246267280
GLOBAL-9                
1 47971U 21023G   26024.13521376  .00033897  00000+0  82779-3 0  9993
2 47971  44.9839 336.5495 0002033 101.4053 258.7064 15.40312577272686
AII-BRAVO               
1 48270U 21034C   26023.60461304  .00007703  00000+0  59042-3 0  9997
2 48270  97.5854  81.7937 0008074  57.7653 302.4353 15.02079361257905
TYVAK-182A              
1 48271U 21034D   26024.16078957  .00010562  00000+0  75674-3 0  9994
2 48271  97.5946  85.5898 0007729  99.6979 260.5121 15.04541901258160
CSS (TIANHE)            
1 48274U 21035A   26024.28577586  .00029945  00000+0  34840-3 0  9998
2 48274  41.4667 118.0663 0010099 350.3753   9.6891 15.60992638270679
TYVAK-0130              
1 48606U 21041BF  26024.13288389  .00015633  00000+0  62810-3 0  9995
2 48606  52.9961 333.9454 0012029  83.9799 276.2568 15.25072131258387
HAIYANG-2D              
1 48621U 21043A   26024.28128414  .00000088  00000+0  15337-3 0  9992
2 48621  66.0003 302.9797 0009936 280.9352  79.0598 13.83373608236642
2021-050D               
1 48843U 21050D   26024.27788094  .00013375  00000+0  54728-3 0  9991
2 48843  97.3478 103.5164 0002977  53.1413 307.0097 15.24444158257052
TYVAK-0173              
1 48892U 21059P   26024.20815007  .00004598  00000+0  59381-3 0  9999
2 48892  96.0091 136.3995 0010110 149.6886 210.4919 14.81230888246921
MANDRAKE 2 ABLE         
1 48907U 21059AE  26023.93448970  .00031648  00000+0  59647-3 0  9997
2 48907  97.7002 203.4042 0005014 158.0439 202.1026 15.48438324254758
MANDRAKE 2 BAKER        
1 48908U 21059AF  26024.22710681  .00037564  00000+0  62906-3 0  9997
2 48908  97.7002 205.7188 0004517 143.5083 216.6477 15.51766621254912
PACE-1                  
1 48909U 21059AG  26024.24131004  .00061435  00000+0  71352-3 0  9995
2 48909  97.6834 208.3013 0003383 112.6301 247.5314 15.61562489255215
YAM-3                   
1 48915U 21059AN  26023.73857919  .00020980  00000+0  45262-3 0  9996
2 48915  97.6943 201.6614 0005908 149.2893 210.8701 15.44572592254661
FARADAY_PHOENIX         
1 48924U 21059AX  26024.24173444  .00066299  00000+0  97683-3 0  9994
2 48924  97.6905 209.1970 0006177 129.4251 230.7550 15.55174380255146
DEMO8 (TENZING)         
1 48951U 21059CA  26023.95376266  .00030064  00000+0  55883-3 0  9995
2 48951  97.7017 207.0162 0007840 151.7924 208.3752 15.48826026254938
ASTROCAST-0201          
1 48954U 21059CD  26023.49144211  .00268097  29981-4  71535-3 0  9995
2 48954  97.6338 217.7861 0005327 239.9134 120.1613 15.94511131255825
ASTROCAST-0203          
1 48955U 21059CE  26023.79803566  .00334264  47050-4  79687-3 0  9997
2 48955  97.6426 217.8091 0002978 223.7095 136.3945 15.96623881255876
NAPA-2                  
1 48963U 21059CN  26024.28599676  .00086372  00000+0  91313-3 0  9998
2 48963  97.6842 207.6119 0003663 125.5927 234.5673 15.63893747255121
JILIN-1 GAOFEN 3D03     
1 49006U 21061D   26024.27517675  .00141861  00000+0  13174-2 0  9991
2 49006  97.3118  99.1036 0003531 238.5835 121.5080 15.66983513253569
XINGSHIDAI 10           
1 49007U 21061E   26024.31410435  .00124912  00000+0  12158-2 0  9992
2 49007  97.3113  98.9338 0003376 221.7849 138.3154 15.65862078253551
FENGYUN 3E              
1 49008U 21062A   26024.30745933 -.00000067  00000+0 -11095-4 0  9994
2 49008  98.7493  29.3267 0002402 119.0318 241.1100 14.19886462236169
ISS (NAUKA)             
1 49044U 21066A   26023.72220588  .00016677  00000+0  30360-3 0  9994
2 49044  51.6325 294.6353 0007776  51.0046 309.1634 15.49596283230441
STARLINK-3100           
1 49144U 21082Q   26024.30607544  .00002527  00000+0  21959-3 0  9992
2 49144  69.9997  46.3538 0003232 276.0487  84.0304 14.98314598239337
CUTE                    
1 49263U 21088D   26024.23263623  .00088675  00000+0  97727-3 0  9992
2 49263  97.4291 114.0758 0004700 112.7447 247.4309 15.62814353239923
2021-091B               
1 49316U 21091B   26024.30515301  .00004506  00000+0  22712-3 0  9999
2 49316  97.4456 214.1322 0013455 175.6412 184.4942 15.17586595237151
SDGSAT 1                
1 49387U 21100A   26024.28010322  .00004825  00000+0  22743-3 0  9996
2 49387  97.2857  76.4723 0013326  84.8940 275.3816 15.19875519234066
TEIKYOSAT-4 (OORURI)    
1 49396U 21102B   26024.04813776  .00004300  00000+0  27622-3 0  9995
2 49396  97.3851  59.0533 0013661  71.6861 288.5853 15.08876336230985
Z-SAT                   
1 49399U 21102E   26024.33180900  .00005673  00000+0  28993-3 0  9992
2 49399  97.3529  63.9939 0018010  34.1481 326.0907 15.16918800231621
HIBARI                  
1 49400U 21102F   26023.87509124  .00017986  00000+0  65187-3 0  9992
2 49400  97.3464  71.5884 0012284   1.5554 358.5722 15.28350759232129
KOSEN-1                 
1 49402U 21102H   26024.11869319  .00014265  00000+0  58187-3 0  9996
2 49402  97.3414  69.1358 0014383   3.5354 356.5983 15.24444337232058
GLOBAL-14               
1 49469U 21106A   26023.79758125  .00031888  00000+0  70485-3 0  9993
2 49469  42.0051  64.5974 0010340 102.3916 257.8084 15.43153507235762
GAOFEN-3 02             
1 49495U 21109A   26024.29759705  .00000156  00000+0  60519-4 0  9998
2 49495  98.4123  34.4174 0003784  72.1084 288.0518 14.42214807219576
GLOBAL-12               
1 49772U 21115BA  26024.23177107  .00040557  00000+0  85117-3 0  9996
2 49772  53.1984  12.3967 0001542  14.3645 345.7406 15.44998931233587
GLOBAL-13               
1 49773U 21115BB  26024.21821160  .00029345  00000+0  72977-3 0  9992
2 49773  53.1998  16.0764 0004302  56.4006 303.7410 15.40072292233537
GLOBAL-17               
1 49949U 21120A   26023.80283501  .00032464  00000+0  69035-3 0  9995
2 49949  41.9952 184.7213 0009918 311.5066  48.4924 15.44294226232515
GLOBAL-16               
1 49950U 21120B   26023.84769717  .00030773  00000+0  68732-3 0  9993
2 49950  41.9959 185.9479 0008328 298.5952  61.4051 15.42876717232495
XW-3 (CAS-9)            
1 50466U 21131B   26024.27976080  .00000835  00000+0  27235-3 0  9999
2 50466  98.5011 117.4817 0004595 157.2739 202.8654 14.41183886214382
ION SCV-004             
1 50993U 22002K   26024.12326565  .00010300  00000+0  37062-3 0  9990
2 50993  97.3055  84.4917 0008764 138.3123 221.8787 15.28751232223273
ETV-A1                  
1 51060U 22002CE  26024.32638112  .00018451  00000+0  50754-3 0  9990
2 51060  97.3083  91.2492 0006505 134.3779 225.7999 15.37216012223717
BRO-5                   
1 51061U 22002CF  26024.21724714  .00025050  00000+0  58736-3 0  9994
2 51061  97.3177  97.1369 0006701 124.3128 235.8755 15.42038713224039
LUDI TANCE 1-01A (L-SA*)
1 51284U 22007A   26024.31554399 -.00000034  00000+0  21832-5 0  9992
2 51284  97.8104  33.7934 0001431  95.8770 264.2610 14.88416885217076
